{
    "links": {
        "self": "http://www.neowsapp.com/rest/v1/neo/3781248?api_key=iIulBulltgU6a56xZRHN4H3l9WmuAYTsLGpBGhQ2"
    },
    "id": "3781248",
    "neo_reference_id": "3781248",
    "name": "(2017 QM33)",
    "designation": "2017 QM33",
    "nasa_jpl_url": "http://ssd.jpl.nasa.gov/sbdb.cgi?sstr=3781248",
    "absolute_magnitude_h": 27.8,
    "estimated_diameter": {
        "kilometers": {
            "estimated_diameter_min": 0.0073207399,
            "estimated_diameter_max": 0.016369672
        },
        "meters": {
            "estimated_diameter_min": 7.3207398935,
            "estimated_diameter_max": 16.3696720474
        },
        "miles": {
            "estimated_diameter_min": 0.0045488955,
            "estimated_diameter_max": 0.0101716395
        },
        "feet": {
            "estimated_diameter_min": 24.0181762721,
            "estimated_diameter_max": 53.70627484
        }
    },
    "is_potentially_hazardous_asteroid": false,
    "close_approach_data": [
        {
            "close_approach_date": "2017-08-23",
            "close_approach_date_full": "2017-Aug-23 21:58",
            "epoch_date_close_approach": 1503525480000,
            "relative_velocity": {
                "kilometers_per_second": "17.37624666",
                "kilometers_per_hour": "62554.4879759615",
                "miles_per_hour": "38868.9261537301"
            },
            "miss_distance": {
                "astronomical": "0.0039121876",
                "lunar": "1.5218409764",
                "kilometers": "585254.932000412",
                "miles": "363660.5515812056"
            },
            "orbiting_body": "Moon"
        },
        {
            "close_approach_date": "2017-08-24",
            "close_approach_date_full": "2017-Aug-24 03:27",
            "epoch_date_close_approach": 1503545220000,
            "relative_velocity": {
                "kilometers_per_second": "17.6571724326",
                "kilometers_per_hour": "63565.8207572408",
                "miles_per_hour": "39497.3290144089"
            },
            "miss_distance": {
                "astronomical": "0.0040018175",
                "lunar": "1.5567070075",
                "kilometers": "598663.374128725",
                "miles": "371992.171177405"
            },
            "orbiting_body": "Earth"
        }
    ],
    "orbital_data": {
        "orbit_id": "1",
        "orbit_determination_date": "2017-08-30 12:12:05",
        "first_observation_date": "2017-08-28",
        "last_observation_date": "2017-08-30",
        "data_arc_in_days": 2,
        "observations_used": 24,
        "orbit_uncertainty": "8",
        "minimum_orbit_intersection": ".00344341",
        "jupiter_tisserand_invariant": "3.624",
        "epoch_osculation": "2457994.5",
        "eccentricity": ".6333130841757896",
        "semi_major_axis": "1.942378434544535",
        "inclination": "2.402906862234406",
        "ascending_node_longitude": "335.4147408395854",
        "orbital_period": "988.7789183666283",
        "perihelion_distance": ".7122447575265937",
        "perihelion_argument": "279.0994743634748",
        "aphelion_distance": "3.172512111562477",
        "perihelion_time": "2457942.664862193962",
        "mean_anomaly": "18.87241855944841",
        "mean_motion": ".3640854323580107",
        "equinox": "J2000",
        "orbit_class": {
            "orbit_class_type": "APO",
            "orbit_class_description": "Near-Earth asteroid orbits which cross the Earth’s orbit similar to that of 1862 Apollo",
            "orbit_class_range": "a (semi-major axis) > 1.0 AU; q (perihelion) < 1.017 AU"
        }
    },
    "is_sentry_object": false
}